start=new Date('2022-10-29T00:00:00.000Z').valueOf();
sats=[{"RA_OF_ASC_NODE":"355.4677","MEAN_MOTION_DOT":"0.00001482","APOAPSIS":"548.612","LAUNCH_DATE":"2020-10-18","FILE":"3636982","TLE_LINE1":"1 46712U 20073AU  22301.46198761  .00001482  00000-0  11836-3 0  9999","SEMIMAJOR_AXIS":"6925.313","OBJECT_NAME":"STARLINK-1814","MEAN_ELEMENT_THEORY":"SGP4","CENTER_NAME":"EARTH","COUNTRY_CODE":"US","TIME_SYSTEM":"UTC","SITE":"AFETR","PERIOD":"95.591","OBJECT_TYPE":"PAYLOAD","MEAN_MOTION":"15.06411549","CLASSIFICATION_TYPE":"U","EPOCH":"2022-10-28T11:05:15.729504","NORAD_CAT_ID":"46712","ARG_OF_PERICENTER":"48.4955","MEAN_ANOMALY":"311.6212","EPHEMERIS_TYPE":"0","REV_AT_EPOCH":"11248","REF_FRAME":"TEME","OBJECT_ID":"2020-073AU","RCS_SIZE":"LARGE","MEAN_MOTION_DDOT":"0.0000000000000","TLE_LINE2":"2 46712  53.0567 355.4677 0002071  48.4955 311.6212 15.06411549112488","ECCENTRICITY":"0.00020710","GP_ID":"216382717","DECAY_DATE":null,"BSTAR":"0.00011836000000","INCLINATION":"53.0567","ELEMENT_SET_NO":"999","PERIAPSIS":"545.744"},{"GP_ID":"216406001","DECAY_DATE":null,"PERIAPSIS":"545.681","ELEMENT_SET_NO":"999","BSTAR":"0.00045932000000","INCLINATION":"53.0563","OBJECT_ID":"2020-073AV","REF_FRAME":"TEME","RCS_SIZE":"LARGE","TLE_LINE2":"2 46713  53.0563 354.7507 0002098  43.6607 316.4548 15.06426057112024","MEAN_MOTION_DDOT":"0.0000000000000","ECCENTRICITY":"0.00020980","EPOCH":"2022-10-28T14:14:57.603264","NORAD_CAT_ID":"46713","MEAN_ANOMALY":"316.4548","ARG_OF_PERICENTER":"43.6607","EPHEMERIS_TYPE":"0","REV_AT_EPOCH":"11202","PERIOD":"95.590","OBJECT_TYPE":"PAYLOAD","MEAN_MOTION":"15.06426057","CLASSIFICATION_TYPE":"U","SITE":"AFETR","TIME_SYSTEM":"UTC","COUNTRY_CODE":"US","OBJECT_NAME":"STARLINK-1815","MEAN_ELEMENT_THEORY":"SGP4","SEMIMAJOR_AXIS":"6925.269","CENTER_NAME":"EARTH","MEAN_MOTION_DOT":"0.00006571","RA_OF_ASC_NODE":"354.7507","APOAPSIS":"548.587","LAUNCH_DATE":"2020-10-18","TLE_LINE1":"1 46713U 20073AV  22301.59372226  .00006571  00000-0  45932-3 0  9992","FILE":"3637111"},{"REF_FRAME":"TEME","OBJECT_ID":"2020-073AW","RCS_SIZE":"LARGE","TLE_LINE2":"2 46714  53.0545 354.4986 0002030  50.9052 309.2118 15.06406368112031","MEAN_MOTION_DDOT":"0.0000000000000","ECCENTRICITY":"0.00020300","GP_ID":"216405751","DECAY_DATE":null,"INCLINATION":"53.0545","BSTAR":"0.00027034000000","ELEMENT_SET_NO":"999","PERIAPSIS":"545.788","PERIOD":"95.592","OBJECT_TYPE":"PAYLOAD","MEAN_MOTION":"15.06406368","CLASSIFICATION_TYPE":"U","MEAN_ANOMALY":"309.2118","EPOCH":"2022-10-28T15:35:55.336992","ARG_OF_PERICENTER":"50.9052","NORAD_CAT_ID":"46714","EPHEMERIS_TYPE":"0","REV_AT_EPOCH":"11203","COUNTRY_CODE":"US","TIME_SYSTEM":"UTC","SITE":"AFETR","RA_OF_ASC_NODE":"354.4986","MEAN_MOTION_DOT":"0.00003748","APOAPSIS":"548.600","LAUNCH_DATE":"2020-10-18","FILE":"3637111","TLE_LINE1":"1 46714U 20073AW  22301.64994603  .00003748  00000-0  27034-3 0  9994","SEMIMAJOR_AXIS":"6925.329","MEAN_ELEMENT_THEORY":"SGP4","OBJECT_NAME":"STARLINK-1816","CENTER_NAME":"EARTH"},{"CENTER_NAME":"EARTH","SEMIMAJOR_AXIS":"6925.299","OBJECT_NAME":"STARLINK-1817","MEAN_ELEMENT_THEORY":"SGP4","LAUNCH_DATE":"2020-10-18","FILE":"3636776","TLE_LINE1":"1 46715U 20073AX  22301.44722248  .00002166  00000-0  16419-3 0  9995","RA_OF_ASC_NODE":"355.4235","MEAN_MOTION_DOT":"0.00002166","APOAPSIS":"548.541","TIME_SYSTEM":"UTC","SITE":"AFETR","COUNTRY_CODE":"US","REV_AT_EPOCH":"11200","EPHEMERIS_TYPE":"0","MEAN_ANOMALY":"309.7608","EPOCH":"2022-10-28T10:44:00.022272","NORAD_CAT_ID":"46715","ARG_OF_PERICENTER":"50.3556","OBJECT_TYPE":"PAYLOAD","CLASSIFICATION_TYPE":"U","MEAN_MOTION":"15.06416255","PERIOD":"95.591","INCLINATION":"53.0550","BSTAR":"0.00016419000000","ELEMENT_SET_NO":"999","PERIAPSIS":"545.786","GP_ID":"216373502","DECAY_DATE":null,"TLE_LINE2":"2 46715  53.0550 355.4235 0001989  50.3556 309.7608 15.06416255112003","MEAN_MOTION_DDOT":"0.0000000000000","ECCENTRICITY":"0.00019890","REF_FRAME":"TEME","OBJECT_ID":"2020-073AX","RCS_SIZE":"LARGE"},{"COUNTRY_CODE":"US","SITE":"AFETR","TIME_SYSTEM":"UTC","TLE_LINE1":"1 46716U 20073AY  22301.46243763  .00006895  00000-0  48118-3 0  9992","FILE":"3636776","LAUNCH_DATE":"2020-10-18","APOAPSIS":"548.254","MEAN_MOTION_DOT":"0.00006895","RA_OF_ASC_NODE":"10.3394","CENTER_NAME":"EARTH","OBJECT_NAME":"STARLINK-1818","MEAN_ELEMENT_THEORY":"SGP4","SEMIMAJOR_AXIS":"6925.308","ECCENTRICITY":"0.00015620","TLE_LINE2":"2 46716  53.0560  10.3394 0001562  63.3452 296.7696 15.06413380111797","MEAN_MOTION_DDOT":"0.0000000000000","RCS_SIZE":"LARGE","OBJECT_ID":"2020-073AY","REF_FRAME":"TEME","PERIAPSIS":"546.091","ELEMENT_SET_NO":"999","INCLINATION":"53.0560","BSTAR":"0.00048118000000","GP_ID":"216373253","DECAY_DATE":null,"MEAN_MOTION":"15.06413380","CLASSIFICATION_TYPE":"U","OBJECT_TYPE":"PAYLOAD","PERIOD":"95.591","EPHEMERIS_TYPE":"0","REV_AT_EPOCH":"11179","ARG_OF_PERICENTER":"63.3452","EPOCH":"2022-10-28T11:05:54.611232","NORAD_CAT_ID":"46716","MEAN_ANOMALY":"296.7696"},{"REV_AT_EPOCH":"11203","EPHEMERIS_TYPE":"0","EPOCH":"2022-10-28T15:57:09.931392","ARG_OF_PERICENTER":"54.6446","MEAN_ANOMALY":"305.4699","NORAD_CAT_ID":"46717","CLASSIFICATION_TYPE":"U","MEAN_MOTION":"15.06415801","OBJECT_TYPE":"PAYLOAD","PERIOD":"95.591","INCLINATION":"53.0549","BSTAR":"0.00009058400000","PERIAPSIS":"546.008","ELEMENT_SET_NO":"999","DECAY_DATE":null,"GP_ID":"216405502","ECCENTRICITY":"0.00016710","MEAN_MOTION_DDOT":"0.0000000000000","TLE_LINE2":"2 46717  53.0549 354.4455 0001671  54.6446 305.4699 15.06415801112031","RCS_SIZE":"LARGE","REF_FRAME":"TEME","OBJECT_ID":"2020-073AZ","CENTER_NAME":"EARTH","SEMIMAJOR_AXIS":"6925.300","OBJECT_NAME":"STARLINK-1820","MEAN_ELEMENT_THEORY":"SGP4","FILE":"3637111","TLE_LINE1":"1 46717U 20073AZ  22301.66469828  .00001068  00000-0  90584-4 0  9999","LAUNCH_DATE":"2020-10-18","APOAPSIS":"548.322","RA_OF_ASC_NODE":"354.4455","MEAN_MOTION_DOT":"0.00001068","TIME_SYSTEM":"UTC","SITE":"AFETR","COUNTRY_CODE":"US"},{"CENTER_NAME":"EARTH","OBJECT_NAME":"STARLINK-1821","MEAN_ELEMENT_THEORY":"SGP4","SEMIMAJOR_AXIS":"6925.345","LAUNCH_DATE":"2020-10-18","TLE_LINE1":"1 46718U 20073BA  22301.50570679 -.00000347  00000-0 -44068-5 0  9998","FILE":"3636972","MEAN_MOTION_DOT":"-0.00000347","RA_OF_ASC_NODE":"10.1449","APOAPSIS":"548.005","SITE":"AFETR","TIME_SYSTEM":"UTC","COUNTRY_CODE":"US","REV_AT_EPOCH":"11228","EPHEMERIS_TYPE":"0","EPOCH":"2022-10-28T12:08:13.066656","ARG_OF_PERICENTER":"79.6372","NORAD_CAT_ID":"46718","MEAN_ANOMALY":"280.4747","OBJECT_TYPE":"PAYLOAD","MEAN_MOTION":"15.06401250","CLASSIFICATION_TYPE":"U","PERIOD":"95.592","ELEMENT_SET_NO":"999","PERIAPSIS":"546.414","BSTAR":"-0.00000440680000","INCLINATION":"53.0562","GP_ID":"216382724","DECAY_DATE":null,"MEAN_MOTION_DDOT":"0.0000000000000","TLE_LINE2":"2 46718  53.0562  10.1449 0001149  79.6372 280.4747 15.06401250112287","ECCENTRICITY":"0.00011490","OBJECT_ID":"2020-073BA","REF_FRAME":"TEME","RCS_SIZE":"LARGE"},{"MEAN_MOTION":"15.06409094","CLASSIFICATION_TYPE":"U","OBJECT_TYPE":"PAYLOAD","PERIOD":"95.592","REV_AT_EPOCH":"11234","EPHEMERIS_TYPE":"0","ARG_OF_PERICENTER":"39.9259","MEAN_ANOMALY":"320.1923","EPOCH":"2022-10-28T19:42:44.344512","NORAD_CAT_ID":"46719","ECCENTRICITY":"0.00026250","MEAN_MOTION_DDOT":"0.0000000000000","TLE_LINE2":"2 46719  53.0560 333.7370 0002625  39.9259 320.1923 15.06409094112345","RCS_SIZE":"LARGE","REF_FRAME":"TEME","OBJECT_ID":"2020-073BB","INCLINATION":"53.0560","BSTAR":"0.00006250300000","ELEMENT_SET_NO":"999","PERIAPSIS":"545.368","DECAY_DATE":null,"GP_ID":"216404503","FILE":"3637111","TLE_LINE1":"1 46719U 20073BB  22301.82134658  .00000649  00000-0  62503-4 0  9993","LAUNCH_DATE":"2020-10-18","APOAPSIS":"549.004","RA_OF_ASC_NODE":"333.7370","MEAN_MOTION_DOT":"0.00000649","CENTER_NAME":"EARTH","SEMIMAJOR_AXIS":"6925.321","OBJECT_NAME":"STARLINK-1822","MEAN_ELEMENT_THEORY":"SGP4","COUNTRY_CODE":"US","TIME_SYSTEM":"UTC","SITE":"AFETR"},{"OBJECT_NAME":"STARLINK-1825","MEAN_ELEMENT_THEORY":"SGP4","SEMIMAJOR_AXIS":"6925.286","CENTER_NAME":"EARTH","APOAPSIS":"548.234","MEAN_MOTION_DOT":"0.00001985","RA_OF_ASC_NODE":"10.3367","TLE_LINE1":"1 46722U 20073BE  22301.46610587  .00001985  00000-0  15201-3 0  9993","FILE":"3636776","LAUNCH_DATE":"2020-10-18","SITE":"AFETR","TIME_SYSTEM":"UTC","COUNTRY_CODE":"US","ARG_OF_PERICENTER":"55.5866","EPOCH":"2022-10-28T11:11:11.547168","MEAN_ANOMALY":"304.5271","NORAD_CAT_ID":"46722","EPHEMERIS_TYPE":"0","REV_AT_EPOCH":"11179","PERIOD":"95.591","CLASSIFICATION_TYPE":"U","MEAN_MOTION":"15.06420565","OBJECT_TYPE":"PAYLOAD","DECAY_DATE":null,"GP_ID":"216373752","ELEMENT_SET_NO":"999","PERIAPSIS":"546.067","INCLINATION":"53.0558","BSTAR":"0.00015201000000","RCS_SIZE":"LARGE","OBJECT_ID":"2020-073BE","REF_FRAME":"TEME","ECCENTRICITY":"0.00015650","TLE_LINE2":"2 46722  53.0558  10.3367 0001565  55.5866 304.5271 15.06420565111796","MEAN_MOTION_DDOT":"0.0000000000000"},{"TIME_SYSTEM":"UTC","SITE":"AFETR","COUNTRY_CODE":"US","CENTER_NAME":"EARTH","SEMIMAJOR_AXIS":"6925.311","MEAN_ELEMENT_THEORY":"SGP4","OBJECT_NAME":"STARLINK-1826","FILE":"3637111","TLE_LINE1":"1 46723U 20073BF  22301.55826784  .00001283  00000-0  10503-3 0  9993","LAUNCH_DATE":"2020-10-18","APOAPSIS":"548.797","RA_OF_ASC_NODE":"329.9263","MEAN_MOTION_DOT":"0.00001283","BSTAR":"0.00010503000000","INCLINATION":"53.0549","PERIAPSIS":"545.555","ELEMENT_SET_NO":"999","DECAY_DATE":null,"GP_ID":"216406002","ECCENTRICITY":"0.00023410","TLE_LINE2":"2 46723  53.0549 329.9263 0002341  44.0280 316.0895 15.06412187112373","MEAN_MOTION_DDOT":"0.0000000000000","RCS_SIZE":"LARGE","REF_FRAME":"TEME","OBJECT_ID":"2020-073BF","EPHEMERIS_TYPE":"0","REV_AT_EPOCH":"11237","ARG_OF_PERICENTER":"44.0280","MEAN_ANOMALY":"316.0895","EPOCH":"2022-10-28T13:23:54.341376","NORAD_CAT_ID":"46723","MEAN_MOTION":"15.06412187","CLASSIFICATION_TYPE":"U","OBJECT_TYPE":"PAYLOAD","PERIOD":"95.591"}];
